[{"OBJECT_NAME":"TIANPING 2B","OBJECT_ID":"2022-032C","EPOCH":"2026-03-09T22:22:05.849760","MEAN_MOTION":15.01267566,"ECCENTRICITY":0.00208707,"INCLINATION":97.6053,"RA_OF_ASC_NODE":116.3222,"ARG_OF_PERICENTER":130.0797,"MEAN_ANOMALY":230.2261,"EPHEMERIS_TYPE":0,"CLASSIFICATION_TYPE":"U","NORAD_CAT_ID":52155,"ELEMENT_SET_NO":999,"REV_AT_EPOCH":21538,"BSTAR":0.00026542484,"MEAN_MOTION_DOT":3.368e-5,"MEAN_MOTION_DDOT":0},{"OBJECT_NAME":"STARLINK-5796","OBJECT_ID":"2023-037C","EPOCH":"2026-03-09T21:17:37.878144","MEAN_MOTION":14.98333112,"ECCENTRICITY":0.00025469,"INCLINATION":69.9996,"RA_OF_ASC_NODE":304.0841,"ARG_OF_PERICENTER":265.0751,"MEAN_ANOMALY":95.0118,"EPHEMERIS_TYPE":0,"CLASSIFICATION_TYPE":"U","NORAD_CAT_ID":55916,"ELEMENT_SET_NO":999,"REV_AT_EPOCH":16351,"BSTAR":-1.7216849e-5,"MEAN_MOTION_DOT":-2.98e-6,"MEAN_MOTION_DDOT":0}]
